EUTELSAT QUANTUM        
1 49056U 21069B   25326.52463396  .00000147  00000+0  00000+0 0  9998
2 49056   0.0369  56.1173 0002952 199.6859  42.5403  1.00271944 15857
EUTELSAT KONNECT VHTS   
1 53765U 22110A   25326.37303409  .00000039  00000+0  00000+0 0  9999
2 53765   0.0697 108.1274 0002532 105.2048 345.3170  1.00268948  4752
EUTELSAT HOTBIRD 13F    
1 54048U 22134A   25325.94705986  .00000109  00000+0  00000+0 0  9996
2 54048   0.0499 289.4517 0002038  75.4122  50.2908  1.00274289 11295
EUTELSAT HOTBIRD 13G    
1 54225U 22146A   25326.16641775  .00000109  00000+0  00000+0 0  9996
2 54225   0.0451 239.9623 0001940 292.6352 321.7453  1.00271259  5396
EUTELSAT 10B            
1 54259U 22157A   25326.51700725  .00000090  00000+0  00000+0 0  9994
2 54259   0.0688 105.0164 0000886  11.6300 141.2553  1.00272588 10958
EUTELSAT 36D            
1 59346U 24059A   25326.02289363  .00000177  00000+0  00000+0 0  9991
2 59346   0.0178 314.3350 0000561  50.8701 100.1837  1.00271645  6076
